CCSDS_OMM_VERS = 2.0
CREATION_DATE  = 
ORIGINATOR     = 

OBJECT_NAME    = SL-16 R/B
OBJECT_ID      = 1993-016B
CENTER_NAME    = EARTH
REF_FRAME      = TEME
TIME_SYSTEM    = UTC
MEAN_ELEMENT_THEORY = SGP/SGP4

EPOCH          = 2026-01-15T06:39:04.194432
MEAN_MOTION    = 14.15293521
ECCENTRICITY   = .0008703
INCLINATION    = 71.0088
RA_OF_ASC_NODE = 327.3647
ARG_OF_PERICENTER = 33.4097
MEAN_ANOMALY   = 326.7574

EPHEMERIS_TYPE = 0
CLASSIFICATION_TYPE = U
NORAD_CAT_ID   = 22566
ELEMENT_SET_NO = 999
REV_AT_EPOCH   = 69461
BSTAR          = -.5894E-4
MEAN_MOTION_DOT = -.162E-5
MEAN_MOTION_DDOT = 0

CCSDS_OMM_VERS = 2.0
CREATION_DATE  = 
ORIGINATOR     = 

OBJECT_NAME    = COSMOS 2242
OBJECT_ID      = 1993-024A
CENTER_NAME    = EARTH
REF_FRAME      = TEME
TIME_SYSTEM    = UTC
MEAN_ELEMENT_THEORY = SGP/SGP4

EPOCH          = 2026-01-14T22:35:20.276160
MEAN_MOTION    = 14.96271798
ECCENTRICITY   = .0017741
INCLINATION    = 82.5209
RA_OF_ASC_NODE = 318.1093
ARG_OF_PERICENTER = 122.1535
MEAN_ANOMALY   = 238.1411

EPHEMERIS_TYPE = 0
CLASSIFICATION_TYPE = U
NORAD_CAT_ID   = 22626
ELEMENT_SET_NO = 999
REV_AT_EPOCH   = 77235
BSTAR          = .12135E-3
MEAN_MOTION_DOT = .1401E-4
MEAN_MOTION_DDOT = 0

CCSDS_OMM_VERS = 2.0
CREATION_DATE  = 
ORIGINATOR     = 

OBJECT_NAME    = SL-16 R/B
OBJECT_ID      = 1993-059B
CENTER_NAME    = EARTH
REF_FRAME      = TEME
TIME_SYSTEM    = UTC
MEAN_ELEMENT_THEORY = SGP/SGP4

EPOCH          = 2026-01-15T11:17:09.735648
MEAN_MOTION    = 14.17221139
ECCENTRICITY   = .0019349
INCLINATION    = 70.9910
RA_OF_ASC_NODE = 123.3590
ARG_OF_PERICENTER = 288.8326
MEAN_ANOMALY   = 71.0699

EPHEMERIS_TYPE = 0
CLASSIFICATION_TYPE = U
NORAD_CAT_ID   = 22803
ELEMENT_SET_NO = 999
REV_AT_EPOCH   = 67199
BSTAR          = .13607E-3
MEAN_MOTION_DOT = .227E-5
MEAN_MOTION_DDOT = 0

CCSDS_OMM_VERS = 2.0
CREATION_DATE  = 
ORIGINATOR     = 

OBJECT_NAME    = ARIANE 40 R/B
OBJECT_ID      = 1993-061H
CENTER_NAME    = EARTH
REF_FRAME      = TEME
TIME_SYSTEM    = UTC
MEAN_ELEMENT_THEORY = SGP/SGP4

EPOCH          = 2026-01-15T03:18:46.012320
MEAN_MOTION    = 14.32825561
ECCENTRICITY   = .0011804
INCLINATION    = 98.5025
RA_OF_ASC_NODE = 85.0527
ARG_OF_PERICENTER = 84.3394
MEAN_ANOMALY   = 275.9136

EPHEMERIS_TYPE = 0
CLASSIFICATION_TYPE = U
NORAD_CAT_ID   = 22830
ELEMENT_SET_NO = 999
REV_AT_EPOCH   = 68643
BSTAR          = .61785E-4
MEAN_MOTION_DOT = .125E-5
MEAN_MOTION_DDOT = 0

CCSDS_OMM_VERS = 2.0
CREATION_DATE  = 
ORIGINATOR     = 

OBJECT_NAME    = COSMOS 2278
OBJECT_ID      = 1994-023A
CENTER_NAME    = EARTH
REF_FRAME      = TEME
TIME_SYSTEM    = UTC
MEAN_ELEMENT_THEORY = SGP/SGP4

EPOCH          = 2026-01-15T03:07:32.849184
MEAN_MOTION    = 14.14364243
ECCENTRICITY   = .0006689
INCLINATION    = 71.0549
RA_OF_ASC_NODE = 287.1529
ARG_OF_PERICENTER = 117.2630
MEAN_ANOMALY   = 242.9175

EPHEMERIS_TYPE = 0
CLASSIFICATION_TYPE = U
NORAD_CAT_ID   = 23087
ELEMENT_SET_NO = 999
REV_AT_EPOCH   = 63723
BSTAR          = .10264E-3
MEAN_MOTION_DOT = .149E-5
MEAN_MOTION_DDOT = 0

CCSDS_OMM_VERS = 2.0
CREATION_DATE  = 
ORIGINATOR     = 

OBJECT_NAME    = SL-16 R/B
OBJECT_ID      = 1994-023B
CENTER_NAME    = EARTH
REF_FRAME      = TEME
TIME_SYSTEM    = UTC
MEAN_ELEMENT_THEORY = SGP/SGP4

EPOCH          = 2026-01-14T20:20:29.128704
MEAN_MOTION    = 14.15005511
ECCENTRICITY   = .0003331
INCLINATION    = 70.9991
RA_OF_ASC_NODE = 183.9585
ARG_OF_PERICENTER = 339.8073
MEAN_ANOMALY   = 20.2917

EPHEMERIS_TYPE = 0
CLASSIFICATION_TYPE = U
NORAD_CAT_ID   = 23088
ELEMENT_SET_NO = 999
REV_AT_EPOCH   = 63847
BSTAR          = .13438E-3
MEAN_MOTION_DOT = .213E-5
MEAN_MOTION_DDOT = 0

CCSDS_OMM_VERS = 2.0
CREATION_DATE  = 
ORIGINATOR     = 

OBJECT_NAME    = SL-16 R/B
OBJECT_ID      = 1994-074B
CENTER_NAME    = EARTH
REF_FRAME      = TEME
TIME_SYSTEM    = UTC
MEAN_ELEMENT_THEORY = SGP/SGP4

EPOCH          = 2026-01-15T01:58:07.018752
MEAN_MOTION    = 14.79333011
ECCENTRICITY   = .0007554
INCLINATION    = 97.7172
RA_OF_ASC_NODE = 48.0563
ARG_OF_PERICENTER = 45.2974
MEAN_ANOMALY   = 337.6715

EPHEMERIS_TYPE = 0
CLASSIFICATION_TYPE = U
NORAD_CAT_ID   = 23343
ELEMENT_SET_NO = 999
REV_AT_EPOCH   = 67932
BSTAR          = .45646E-4
MEAN_MOTION_DOT = .291E-5
MEAN_MOTION_DDOT = 0

CCSDS_OMM_VERS = 2.0
CREATION_DATE  = 
ORIGINATOR     = 

OBJECT_NAME    = SL-16 R/B
OBJECT_ID      = 1994-077B
CENTER_NAME    = EARTH
REF_FRAME      = TEME
TIME_SYSTEM    = UTC
MEAN_ELEMENT_THEORY = SGP/SGP4

EPOCH          = 2026-01-15T11:40:05.258208
MEAN_MOTION    = 14.15555377
ECCENTRICITY   = .0004794
INCLINATION    = 70.9836
RA_OF_ASC_NODE = 104.4217
ARG_OF_PERICENTER = 257.2069
MEAN_ANOMALY   = 102.8518

EPHEMERIS_TYPE = 0
CLASSIFICATION_TYPE = U
NORAD_CAT_ID   = 23405
ELEMENT_SET_NO = 999
REV_AT_EPOCH   = 60870
BSTAR          = .15191E-3
MEAN_MOTION_DOT = .249E-5
MEAN_MOTION_DDOT = 0

CCSDS_OMM_VERS = 2.0
CREATION_DATE  = 
ORIGINATOR     = 

OBJECT_NAME    = ARIANE 40+ R/B
OBJECT_ID      = 1995-021B
CENTER_NAME    = EARTH
REF_FRAME      = TEME
TIME_SYSTEM    = UTC
MEAN_ELEMENT_THEORY = SGP/SGP4

EPOCH          = 2026-01-15T03:49:14.541312
MEAN_MOTION    = 14.39724284
ECCENTRICITY   = .0005746
INCLINATION    = 98.4603
RA_OF_ASC_NODE = 87.3379
ARG_OF_PERICENTER = 307.6037
MEAN_ANOMALY   = 81.3493

EPHEMERIS_TYPE = 0
CLASSIFICATION_TYPE = U
NORAD_CAT_ID   = 23561
ELEMENT_SET_NO = 999
REV_AT_EPOCH   = 61154
BSTAR          = .70045E-4
MEAN_MOTION_DOT = .176E-5
MEAN_MOTION_DDOT = 0

CCSDS_OMM_VERS = 2.0
CREATION_DATE  = 
ORIGINATOR     = 

OBJECT_NAME    = SL-16 R/B
OBJECT_ID      = 1995-058B
CENTER_NAME    = EARTH
REF_FRAME      = TEME
TIME_SYSTEM    = UTC
MEAN_ELEMENT_THEORY = SGP/SGP4

EPOCH          = 2026-01-15T04:59:17.853792
MEAN_MOTION    = 14.15490120
ECCENTRICITY   = .0013632
INCLINATION    = 71.0227
RA_OF_ASC_NODE = 292.5392
ARG_OF_PERICENTER = 210.7875
MEAN_ANOMALY   = 149.2450

EPHEMERIS_TYPE = 0
CLASSIFICATION_TYPE = U
NORAD_CAT_ID   = 23705
ELEMENT_SET_NO = 999
REV_AT_EPOCH   = 56028
BSTAR          = -.58509E-5
MEAN_MOTION_DOT = -.59E-6
MEAN_MOTION_DDOT = 0

CCSDS_OMM_VERS = 2.0
CREATION_DATE  = 
ORIGINATOR     = 

OBJECT_NAME    = SL-16 R/B
OBJECT_ID      = 1996-051B
CENTER_NAME    = EARTH
REF_FRAME      = TEME
TIME_SYSTEM    = UTC
MEAN_ELEMENT_THEORY = SGP/SGP4

EPOCH          = 2026-01-15T03:05:54.672864
MEAN_MOTION    = 14.12400829
ECCENTRICITY   = .0018972
INCLINATION    = 70.7594
RA_OF_ASC_NODE = 288.6095
ARG_OF_PERICENTER = 220.2121
MEAN_ANOMALY   = 139.7596

EPHEMERIS_TYPE = 0
CLASSIFICATION_TYPE = U
NORAD_CAT_ID   = 24298
ELEMENT_SET_NO = 999
REV_AT_EPOCH   = 51408
BSTAR          = .25221E-4
MEAN_MOTION_DOT = -.3E-7
MEAN_MOTION_DDOT = 0

CCSDS_OMM_VERS = 2.0
CREATION_DATE  = 
ORIGINATOR     = 

OBJECT_NAME    = ORBVIEW 2 (SEASTAR)
OBJECT_ID      = 1997-037A
CENTER_NAME    = EARTH
REF_FRAME      = TEME
TIME_SYSTEM    = UTC
MEAN_ELEMENT_THEORY = SGP/SGP4

EPOCH          = 2026-01-15T10:38:36.684096
MEAN_MOTION    = 14.35445604
ECCENTRICITY   = .0001856
INCLINATION    = 98.8481
RA_OF_ASC_NODE = 178.3718
ARG_OF_PERICENTER = 192.3068
MEAN_ANOMALY   = 167.8071

EPHEMERIS_TYPE = 0
CLASSIFICATION_TYPE = U
NORAD_CAT_ID   = 24883
ELEMENT_SET_NO = 999
REV_AT_EPOCH   = 50083
BSTAR          = .84118E-4
MEAN_MOTION_DOT = .195E-5
MEAN_MOTION_DDOT = 0

